start=new Date('2021-10-13T00:00:00.000Z').valueOf();
sats=[{"COUNTRY_CODE":"US","CLASSIFICATION_TYPE":"U","TLE_LINE2":"2 46724  53.0514 219.9662 0005548 271.3655  88.6730 15.78080885 55203","PERIAPSIS":"332.155","GP_ID":"186982437","REF_FRAME":"TEME","ELEMENT_SET_NO":"999","LAUNCH_DATE":"2020-10-18","DECAY_DATE":null,"OBJECT_NAME":"STARLINK-1827","FILE":"3158851","MEAN_MOTION_DDOT":"0.0000000000000","ECCENTRICITY":"0.00055480","RCS_SIZE":"LARGE","PERIOD":"91.250","APOAPSIS":"339.605","MEAN_MOTION":"15.78080885","SEMIMAJOR_AXIS":"6714.015","INCLINATION":"53.0514","OBJECT_ID":"2020-073BG","CENTER_NAME":"EARTH","ARG_OF_PERICENTER":"271.3655","TIME_SYSTEM":"UTC","EPOCH":"2021-10-12T05:26:49.303392","BSTAR":"0.00194130000000","EPHEMERIS_TYPE":"0","TLE_LINE1":"1 46724U 20073BG  21285.22695953  .00351232  00000-0  19413-2 0  9990","MEAN_MOTION_DOT":"0.00351232","RA_OF_ASC_NODE":"219.9662","MEAN_ELEMENT_THEORY":"SGP4","OBJECT_TYPE":"PAYLOAD","NORAD_CAT_ID":"46724","MEAN_ANOMALY":"88.6730","REV_AT_EPOCH":"5520","SITE":"AFETR"},{"MEAN_ANOMALY":"293.6313","REV_AT_EPOCH":"5436","SITE":"AFETR","OBJECT_TYPE":"PAYLOAD","NORAD_CAT_ID":"46725","TIME_SYSTEM":"UTC","BSTAR":"0.00007540100000","EPOCH":"2021-10-12T09:34:30.852480","EPHEMERIS_TYPE":"0","MEAN_MOTION_DOT":"0.00000842","TLE_LINE1":"1 46725U 20073BH  21285.39896820  .00000842  00000-0  75401-4 0  9994","RA_OF_ASC_NODE":"280.9982","MEAN_ELEMENT_THEORY":"SGP4","INCLINATION":"53.0543","OBJECT_ID":"2020-073BH","CENTER_NAME":"EARTH","ARG_OF_PERICENTER":"66.4820","APOAPSIS":"548.160","SEMIMAJOR_AXIS":"6925.346","MEAN_MOTION":"15.06400772","FILE":"3158851","MEAN_MOTION_DDOT":"0.0000000000000","ECCENTRICITY":"0.00013700","RCS_SIZE":"LARGE","PERIOD":"95.592","ELEMENT_SET_NO":"999","LAUNCH_DATE":"2020-10-18","DECAY_DATE":null,"OBJECT_NAME":"STARLINK-1828","COUNTRY_CODE":"US","TLE_LINE2":"2 46725  53.0543 280.9982 0001370  66.4820 293.6313 15.06400772 54368","PERIAPSIS":"546.262","CLASSIFICATION_TYPE":"U","GP_ID":"186981185","REF_FRAME":"TEME"},{"APOAPSIS":"551.825","SEMIMAJOR_AXIS":"6925.363","MEAN_MOTION":"15.06395136","FILE":"3158851","PERIOD":"95.592","RCS_SIZE":"LARGE","MEAN_MOTION_DDOT":"0.0000000000000","ECCENTRICITY":"0.00066370","ELEMENT_SET_NO":"999","OBJECT_NAME":"STARLINK-1829","DECAY_DATE":null,"LAUNCH_DATE":"2020-10-18","COUNTRY_CODE":"US","REF_FRAME":"TEME","GP_ID":"186981435","TLE_LINE2":"2 46726  53.0554 266.1861 0006637 265.3410  94.6821 15.06395136 54561","CLASSIFICATION_TYPE":"U","PERIAPSIS":"542.632","SITE":"AFETR","REV_AT_EPOCH":"5456","MEAN_ANOMALY":"94.6821","NORAD_CAT_ID":"46726","OBJECT_TYPE":"PAYLOAD","BSTAR":"0.00000251950000","EPOCH":"2021-10-12T08:35:26.817792","TIME_SYSTEM":"UTC","MEAN_ELEMENT_THEORY":"SGP4","RA_OF_ASC_NODE":"266.1861","MEAN_MOTION_DOT":"-0.00000246","TLE_LINE1":"1 46726U 20073BJ  21285.35794928 -.00000246  00000-0  25195-5 0  9992","EPHEMERIS_TYPE":"0","CENTER_NAME":"EARTH","OBJECT_ID":"2020-073BJ","INCLINATION":"53.0554","ARG_OF_PERICENTER":"265.3410"},{"COUNTRY_CODE":"US","REF_FRAME":"TEME","GP_ID":"186982686","CLASSIFICATION_TYPE":"U","TLE_LINE2":"2 46727  53.0529 241.3822 0001372  63.7050 296.4080 15.06400926 54919","PERIAPSIS":"546.261","ELEMENT_SET_NO":"999","OBJECT_NAME":"STARLINK-1830","DECAY_DATE":null,"LAUNCH_DATE":"2020-10-18","FILE":"3158851","PERIOD":"95.592","RCS_SIZE":"LARGE","MEAN_MOTION_DDOT":"0.0000000000000","ECCENTRICITY":"0.00013720","APOAPSIS":"548.161","MEAN_MOTION":"15.06400926","SEMIMAJOR_AXIS":"6925.346","CENTER_NAME":"EARTH","OBJECT_ID":"2020-073BK","INCLINATION":"53.0529","ARG_OF_PERICENTER":"63.7050","BSTAR":"-0.00001098100000","EPOCH":"2021-10-12T07:32:25.623744","TIME_SYSTEM":"UTC","MEAN_ELEMENT_THEORY":"SGP4","RA_OF_ASC_NODE":"241.3822","TLE_LINE1":"1 46727U 20073BK  21285.31418546 -.00000445  00000-0 -10981-4 0  9996","MEAN_MOTION_DOT":"-0.00000445","EPHEMERIS_TYPE":"0","NORAD_CAT_ID":"46727","OBJECT_TYPE":"PAYLOAD","SITE":"AFETR","REV_AT_EPOCH":"5491","MEAN_ANOMALY":"296.4080"},{"ELEMENT_SET_NO":"999","DECAY_DATE":null,"LAUNCH_DATE":"2020-10-18","OBJECT_NAME":"STARLINK-1831","COUNTRY_CODE":"US","TLE_LINE2":"2 46728  53.0509 254.1515 0000415  84.6333 275.4718 15.40161817 54738","PERIAPSIS":"445.350","CLASSIFICATION_TYPE":"U","GP_ID":"187015046","REF_FRAME":"TEME","APOAPSIS":"445.917","SEMIMAJOR_AXIS":"6823.768","MEAN_MOTION":"15.40161817","FILE":"3159338","MEAN_MOTION_DDOT":"0.0000000000000","ECCENTRICITY":"0.00004150","PERIOD":"93.497","RCS_SIZE":"LARGE","TIME_SYSTEM":"UTC","BSTAR":"0.01511100000000","EPOCH":"2021-10-12T09:26:24.259776","TLE_LINE1":"1 46728U 20073BL  21285.39333634  .00662624  00000-0  15111-1 0  9997","MEAN_MOTION_DOT":"0.00662624","EPHEMERIS_TYPE":"0","MEAN_ELEMENT_THEORY":"SGP4","RA_OF_ASC_NODE":"254.1515","OBJECT_ID":"2020-073BL","INCLINATION":"53.0509","CENTER_NAME":"EARTH","ARG_OF_PERICENTER":"84.6333","REV_AT_EPOCH":"5473","MEAN_ANOMALY":"275.4718","SITE":"AFETR","OBJECT_TYPE":"PAYLOAD","NORAD_CAT_ID":"46728"},{"MEAN_ELEMENT_THEORY":"SGP4","RA_OF_ASC_NODE":"350.6729","MEAN_MOTION_DOT":"0.00000462","TLE_LINE1":"1 46740U 20074B   21285.47360325  .00000462  00000-0  49881-4 0  9998","EPHEMERIS_TYPE":"0","EPOCH":"2021-10-12T11:21:59.320800","BSTAR":"0.00004988100000","TIME_SYSTEM":"UTC","ARG_OF_PERICENTER":"94.1824","CENTER_NAME":"EARTH","OBJECT_ID":"2020-074B","INCLINATION":"53.0579","SITE":"AFETR","MEAN_ANOMALY":"265.9297","REV_AT_EPOCH":"5405","NORAD_CAT_ID":"46740","OBJECT_TYPE":"PAYLOAD","OBJECT_NAME":"STARLINK-1848","DECAY_DATE":null,"LAUNCH_DATE":"2020-10-24","ELEMENT_SET_NO":"999","REF_FRAME":"TEME","GP_ID":"186981186","TLE_LINE2":"2 46740  53.0579 350.6729 0001150  94.1824 265.9297 15.06409683 54055","PERIAPSIS":"546.387","CLASSIFICATION_TYPE":"U","COUNTRY_CODE":"US","MEAN_MOTION":"15.06409683","SEMIMAJOR_AXIS":"6925.319","APOAPSIS":"547.980","PERIOD":"95.592","RCS_SIZE":"LARGE","MEAN_MOTION_DDOT":"0.0000000000000","ECCENTRICITY":"0.00011500","FILE":"3158851"},{"REV_AT_EPOCH":"5413","MEAN_ANOMALY":"276.1898","SITE":"AFETR","OBJECT_TYPE":"PAYLOAD","NORAD_CAT_ID":"46741","EPHEMERIS_TYPE":"0","MEAN_MOTION_DOT":"0.00005698","TLE_LINE1":"1 46741U 20074C   21285.49065727  .00005698  00000-0  40106-3 0  9995","RA_OF_ASC_NODE":"345.6000","MEAN_ELEMENT_THEORY":"SGP4","TIME_SYSTEM":"UTC","BSTAR":"0.00040106000000","EPOCH":"2021-10-12T11:46:32.788128","ARG_OF_PERICENTER":"83.9256","INCLINATION":"53.0539","OBJECT_ID":"2020-074C","CENTER_NAME":"EARTH","SEMIMAJOR_AXIS":"6925.335","MEAN_MOTION":"15.06404567","APOAPSIS":"548.202","ECCENTRICITY":"0.00014470","MEAN_MOTION_DDOT":"0.0000000000000","RCS_SIZE":"LARGE","PERIOD":"95.592","FILE":"3158851","LAUNCH_DATE":"2020-10-24","DECAY_DATE":null,"OBJECT_NAME":"STARLINK-1865","ELEMENT_SET_NO":"999","TLE_LINE2":"2 46741  53.0539 345.6000 0001447  83.9256 276.1898 15.06404567 54138","CLASSIFICATION_TYPE":"U","PERIAPSIS":"546.197","REF_FRAME":"TEME","GP_ID":"186981436","COUNTRY_CODE":"US"},{"REV_AT_EPOCH":"5412","MEAN_ANOMALY":"263.6534","SITE":"AFETR","OBJECT_TYPE":"PAYLOAD","NORAD_CAT_ID":"46742","TLE_LINE1":"1 46742U 20074D   21285.46116680  .00000595  00000-0  58814-4 0  9995","MEAN_MOTION_DOT":"0.00000595","EPHEMERIS_TYPE":"0","MEAN_ELEMENT_THEORY":"SGP4","RA_OF_ASC_NODE":"345.7158","TIME_SYSTEM":"UTC","BSTAR":"0.00005881400000","EPOCH":"2021-10-12T11:04:04.811520","ARG_OF_PERICENTER":"96.4612","OBJECT_ID":"2020-074D","INCLINATION":"53.0552","CENTER_NAME":"EARTH","SEMIMAJOR_AXIS":"6925.349","MEAN_MOTION":"15.06399735","APOAPSIS":"548.166","MEAN_MOTION_DDOT":"0.0000000000000","ECCENTRICITY":"0.00013740","PERIOD":"95.592","RCS_SIZE":"LARGE","FILE":"3158851","DECAY_DATE":null,"LAUNCH_DATE":"2020-10-24","OBJECT_NAME":"STARLINK-1872","ELEMENT_SET_NO":"999","TLE_LINE2":"2 46742  53.0552 345.7158 0001374  96.4612 263.6534 15.06399735 54120","CLASSIFICATION_TYPE":"U","PERIAPSIS":"546.263","GP_ID":"186982687","REF_FRAME":"TEME","COUNTRY_CODE":"US"},{"FILE":"3159048","ECCENTRICITY":"0.00048670","MEAN_MOTION_DDOT":"0.0000000000000","PERIOD":"95.592","RCS_SIZE":"LARGE","APOAPSIS":"550.588","SEMIMAJOR_AXIS":"6925.352","MEAN_MOTION":"15.06398740","COUNTRY_CODE":"US","CLASSIFICATION_TYPE":"U","TLE_LINE2":"2 46743  53.0550 345.6289 0004867 354.4927   5.6008 15.06398740 54157","PERIAPSIS":"543.847","GP_ID":"186986971","REF_FRAME":"TEME","ELEMENT_SET_NO":"999","DECAY_DATE":null,"LAUNCH_DATE":"2020-10-24","OBJECT_NAME":"STARLINK-1892","OBJECT_TYPE":"PAYLOAD","NORAD_CAT_ID":"46743","REV_AT_EPOCH":"5415","MEAN_ANOMALY":"5.6008","SITE":"AFETR","OBJECT_ID":"2020-074E","INCLINATION":"53.0550","CENTER_NAME":"EARTH","ARG_OF_PERICENTER":"354.4927","TIME_SYSTEM":"UTC","BSTAR":"0.00016460000000","EPOCH":"2021-10-12T11:35:55.639104","TLE_LINE1":"1 46743U 20074E   21285.48328286  .00002170  00000-0  16460-3 0  9996","MEAN_MOTION_DOT":"0.00002170","EPHEMERIS_TYPE":"0","MEAN_ELEMENT_THEORY":"SGP4","RA_OF_ASC_NODE":"345.6289"},{"ARG_OF_PERICENTER":"87.2897","OBJECT_ID":"2020-074F","INCLINATION":"53.0533","CENTER_NAME":"EARTH","MEAN_MOTION_DOT":"0.00004448","TLE_LINE1":"1 46744U 20074F   21285.50171327  .00004448  00000-0  31725-3 0  9993","EPHEMERIS_TYPE":"0","MEAN_ELEMENT_THEORY":"SGP4","RA_OF_ASC_NODE":"345.5452","TIME_SYSTEM":"UTC","BSTAR":"0.00031725000000","EPOCH":"2021-10-12T12:02:28.026528","OBJECT_TYPE":"PAYLOAD","NORAD_CAT_ID":"46744","MEAN_ANOMALY":"272.8220","REV_AT_EPOCH":"5413","SITE":"AFETR","TLE_LINE2":"2 46744  53.0533 345.5452 0001117  87.2897 272.8220 15.06406974 54133","CLASSIFICATION_TYPE":"U","PERIAPSIS":"546.419","REF_FRAME":"TEME","GP_ID":"186981686","COUNTRY_CODE":"US","DECAY_DATE":null,"LAUNCH_DATE":"2020-10-24","OBJECT_NAME":"STARLINK-1894","ELEMENT_SET_NO":"999","MEAN_MOTION_DDOT":"0.0000000000000","ECCENTRICITY":"0.00011170","PERIOD":"95.592","RCS_SIZE":"LARGE","FILE":"3158851","SEMIMAJOR_AXIS":"6925.327","MEAN_MOTION":"15.06406974","APOAPSIS":"547.966"}];
